DIVERSION REPORT

DATE OF FLIGHT: 11JUN2026

Divert Reason:  HEAVY THUNDER STORM RAIN AT DESTINATION AIRPORT.

APP RWY Minima:   RWY25: R1.3/V1.6

RWY07: R1.2/V1.4

03.Wx conditions

3.1 TAF/TAF AMD:

TAF VVTS 110500Z 1106/1212 30010KT 9999 SCT017

TEMPO 1108/1111 25016G28KT 2000 +TSRA BKN013 SCT015CB

BECMG 1119/1120 VRB02KT 3000 BR

BECMG 1200/1201 28010KT 9999 NSW

TEMPO 1207/1210 4000 TSRA SCT015 FEW017CB=

TAF VVTS 110800Z 1109/1215 VRB03KT 9999 SCT017

TEMPO 1110/1114 5000 TSRA SCT015 FEW017CB

BECMG 1200/1201 26010KT

TEMPO 1206/1209 26015G26KT 3000 TSRA SCT013 SCT015CB=

TAF VVTS 111100Z 1112/1218 VRB03KT 9999 SCT017 SCT040

TEMPO 1112/1114 5000 TSRA SCT015 FEW017CB

BECMG 1121/1122 4000 BR

TEMPO 1207/1212 14015G26KT 3000 TSRA BKN015 SCT017CB

TAF AMD VVTS 111234Z 1113/1218 VRB03KT 9999 SCT017 SCT040 TEMPO 1113/1116 16015G25KT 3000 TSRA BKN013 SCT015CB BECMG 1121/1122 4000 BR BECMG 1200/1202 24010KT 9999 NSW TEMPO 1207/1212 14015G26KT 3000 TSRA BKN015 SCT017CB=

TAF AMD VVTS 111144Z 1112/1218 VRB03KT 9999 SCT017 SCT040 TEMPO 1112/1114 5000 TSRA SCT015 FEW017CB BECMG 1121/1122 4000 BR BECMG 1201/1202 24010KT 9999 NSW TEMPO 1207/1212 14015G26KT 3000 TSRA BKN015 SCT017CB=

3.2 METAR/SPECI at ATD (03 METAR/SPECI liên tiếp trước ATD):

METAR VVTS 111000Z 03012KT 330V070 0600 R25R/1000 +TSRA SCT010 SCT013CB BKN050 25/24 Q1010 WS R25R WS R07L BECMG TL1020 5000 TSRA=

SPECI VVTS 111008Z 33012KT 1500 R25R/1200D +TSRA SCT012 SCT015CB BKN042 25/24 Q1010 BECMG TL1020 3000 TSRA=

METAR VVTS 111030Z 01006KT 6000 1500W +TSRA SCT013 SCT015CB 25/24 Q1010 BECMG TL1040 5000 TSRA=

SPECI VVTS 111048Z 13013KT 1000 R25R/P2000N +TSRA BKN010 SCT013CB 26/24 Q1011 WS R25R BECMG TL1110 3000 TSRA=

METAR VVTS 111100Z 12019G30KT 1500 +TSRA BKN010 SCT013CB 25/24 Q1010 BECMG TL1130 3000 TSRA=

SPECI VVTS 111118Z 11011KT 080V200 5000 TSRA BKN010 SCT013CB 25/23 Q1012 NOSIG=

METAR VVTS 111130Z 20010KT 7000 -TSRA SCT010 SCT013CB OVC040 25/24 Q1011 NOSIG=

METAR VVTS 111230Z 20016KT 170V230 9000 -TSRA SCT013 FEW015CB BKN050 25/24 Q1012 TEMPO FM1300 TL1400 16015G25KT 3000 TSRA=

METAR VVTS 111200Z 21005KT 8000 -TSRA SCT013 FEW015CB SCT050 27/23 Q1012 NOSIG=

3.3 METAR/SPECI during 60m before and 30m after Actual time of Diversion: (sắp xếp theo

thứ tự thời gian tăng dần, highlight METAR/SPECI 30m trước/sau giờ thực tế Divert)

METAR VVTS 111030Z 01006KT 6000 1500W +TSRA SCT013 SCT015CB 25/24 Q1010 BECMG TL1040 5000 TSRA=

SPECI VVTS 111048Z 13013KT 1000 R25R/P2000N +TSRA BKN010 SCT013CB 26/24 Q1011 WS R25R BECMG TL1110 3000 TSRA=

METAR VVTS 111100Z 12019G30KT 1500 +TSRA BKN010 SCT013CB 25/24 Q1010 BECMG TL1130 3000 TSRA=

SPECI VVTS 111118Z 11011KT 080V200 5000 TSRA BKN010 SCT013CB 25/23 Q1012 NOSIG=

METAR VVTS 111130Z 20010KT 7000 -TSRA SCT010 SCT013CB OVC040 25/24 Q1011 NOSIG=

METAR VVTS 111200Z 21005KT 8000 -TSRA SCT013 FEW015CB SCT050 27/23 Q1012 NOSIG=

METAR VVTS 111230Z 20016KT 170V230 9000 -TSRA SCT013 FEW015CB BKN050 25/24 Q1012 TEMPO FM1300 TL1400 16015G25KT 3000 TSRA=

METAR VVTS 111230Z 20016KT 170V230 9000 -TSRA SCT013 FEW015CB BKN050 25/24 Q1012 TEMPO FM1300 TL1400 16015G25KT 3000 TSRA=

METAR VVTS 111200Z 21005KT 8000 -TSRA SCT013 FEW015CB SCT050 27/23 Q1012 NOSIG=

4. Giải trình của các cá nhân liên quan trong OCD (từ lúc quyết định Release tới

khi máy bay cất cánh):

4.1 DSP thực hiện Release chuyến bay Divert

Trước chuyến bay, Điều phái đã check TAF và METAR sân bay SGN. Metar tại thời điểm cất đều trên minima nên DSP quyết định vẫn release bình thường. Khi có TAF AMD, DSP đã gửi điện lên cho tổ bay, khi tổ bay hold được 21p, DSP đã gửi METAR các sân bay lân cận cho tổ bay tham khảo.Tổ bay quyết định divert về KTI do các sân bay lân cận đều traffic rất nặng.

4.2 SUP trong ca có chuyến bay Divert

SUP đã thường xuyên check các bản tin TAF và METAR sân bay SGN. Khi nhận thấy chuyến bay có khả năng DIV Sup và DSP đã liên hệ các sân bay báo đại diện ưu tiên tiếp nhận chuyến bay.

4.3 TBT trong ca có chuyến bay Divert

TBT theo dõi bản tin TAF, METAR sân bay SGN trước ATD, TAF và METAR đều trên tiêu chuẩn nên TBT vẫn cho đi theo kế hoạch. Khi tổ bay báo divert đi sân bay KTI do thời tiết xấu tại SGN, TBT đã liên hệ với KTI để triển khai công tác phối hợp phục vụ chuyến bay divert.

4.4 Duty Capt trong giờ có chuyến bay Divert

Hỗ trợ Dsp trong phân tích thời tiết, vị trí bãi đỗ sau khi chuyến bay divert.

4.5 Other: NIL

Reported time:    11JUN2026                                              Reported by: TRẦN VŨ BẢO TRUNG

Reviewed by:                                         	                                                 On:

Comment: